{"spkid": "20523732", "covariance": {"data": [["2.19724327952143E-15", "-2.696739236309062E-15", "5.921672949205339E-13", "2.942284941104182E-13", "-1.220167323674002E-13", "-7.045484441163625E-15"], ["-2.696739236309062E-15", "3.312224331597284E-15", "-7.068716572238339E-13", "-3.586142563528385E-13", "1.543142898155276E-13", "8.428829309112711E-15"], ["5.921672949205339E-13", "-7.068716572238339E-13", "2.623240864392615E-9", "1.15149722059862E-9", "-1.521254702318961E-10", "-6.0230235583898E-11"], ["2.942284941104182E-13", "-3.586142563528385E-13", "1.15149722059862E-9", "3.924789278408021E-9", "-3.480281141562746E-9", "-4.128851110094767E-13"], ["-1.220167323674002E-13", "1.543142898155276E-13", "-1.521254702318961E-10", "-3.480281141562746E-9", "3.423932254638813E-9", "-2.263656255491887E-11"], ["-7.045484441163625E-15", "8.428829309112711E-15", "-6.0230235583898E-11", "-4.128851110094767E-13", "-2.263656255491887E-11", "9.006660189652614E-12"]], "elements": [{"label": "e", "title": "eccentricity", "value": ".4526893853581624", "units": null, "name": "e", "sigma": 4.68747616476226e-08}, {"label": "q", "units": "au", "value": ".6600110130197566", "title": "perihelion distance", "name": "q", "sigma": 5.75519272622324e-08}, {"name": "tp", "sigma": 5.12175835469872e-05, "units": "TDB", "title": "time of perihelion passage", "value": "2459214.299900501428", "label": "tp"}, {"label": "node", "units": "deg", "value": "275.8129113110591", "title": "longitude of the ascending node", "sigma": 6.26481386667475e-05, "name": "om"}, {"label": "peri", "name": "w", "sigma": 5.85143764782537e-05, "title": "argument of perihelion", "value": "294.0697670710866", "units": "deg"}, {"title": "inclination", "value": "3.792245813366778", "units": "deg", "sigma": 3.00110982632302e-06, "name": "i", "label": "i"}], "labels": ["e", "q", "tp", "node", "peri", "i"], "epoch": "2459320.5"}, "elements": [{"label": "e", "title": "eccentricity", "value": ".4526938948252409", "units": null, "name": "e", "sigma": "4.6872E-8"}, {"name": "a", "sigma": "3.3741E-9", "title": "semi-major axis", "value": "1.205910324136418", "units": "au", "label": "a"}, {"name": "q", "sigma": "5.7568E-8", "title": "perihelion distance", "value": ".6600020826931342", "units": "au", "label": "q"}, {"label": "i", "sigma": "3.0016E-6", "name": "i", "value": "3.793600639186698", "title": "inclination; angle with respect to x-y ecliptic plane", "units": "deg"}, {"name": "om", "sigma": "6.2614E-5", "units": "deg", "value": "275.7383746168787", "title": "longitude of the ascending node", "label": "node"}, {"label": "peri", "name": "w", "sigma": "5.8481E-5", "units": "deg", "title": "argument of perihelion", "value": "294.1467345304668"}, {"label": "M", "units": "deg", "title": "mean anomaly", "value": "38.36657631269653", "name": "ma", "sigma": "3.8923E-5"}, {"label": "tp", "value": "2461148.950851942212", "title": "time of perihelion passage", "units": "TDB", "name": "tp", "sigma": "5.2255E-5"}, {"sigma": "2.0301E-6", "name": "per", "title": "sidereal orbital period", "value": "483.694274661205", "units": "d", "label": "period"}, {"units": "deg/d", "title": "mean motion", "value": ".7442717825265878", "sigma": "3.1237E-9", "name": "n", "label": "n"}, {"label": "Q", "title": "aphelion distance", "value": "1.751818565579701", "units": "au", "sigma": "4.9016E-9", "name": "ad"}], "epoch": "2461200.5"}